NORAD_CAT_ID,OBJECT_NAME,OBJECT_TYPE,EPOCH,MEAN_MOTION,ECCENTRICITY,INCLINATION,RA_OF_ASC_NODE,ARG_OF_PERICENTER,MEAN_ANOMALY,BSTAR,MEAN_MOTION_DOT,MEAN_MOTION_DDOT,TLE_LINE0,TLE_LINE1,TLE_LINE2,SEMIMAJOR_AXIS,PERIOD,APOGEE,PERIGEE,DECAYED
50829.0,STARLINK-3294,PAYLOAD,2024-03-20 12:44:03,15.08833162,0.0001401,53.2163,157.5485,101.159,258.9559,-7.0815e-05,-1.415e-05,0.0,0 STARLINK-3294,1 50829U 22001AC  24080.53059651 -.00001415  00000-0 -70815-4 0  9995,2 50829  53.2163 157.5485 0001401 101.1590 258.9559 15.08833162121839,6917.901,95.438,540.735,538.797,0.0
50829.0,STARLINK-3294,PAYLOAD,2024-03-20 22:16:22,15.08838802,0.000142,53.2172,155.7633,111.7947,248.3196,2.9459e-05,1.81e-06,0.0,0 STARLINK-3294,1 50829U 22001AC  24080.92803414  .00000181  00000-0  29459-4 0  9997,2 50829  53.2172 155.7633 0001420 111.7947 248.3196 15.08838802121890,6917.884,95.438,540.731,538.767,0.0
50829.0,STARLINK-3294,PAYLOAD,2024-03-21 12:34:49,15.08850719,0.0001481,53.2159,153.091,92.3343,267.7819,0.00014898,2.085e-05,0.0,0 STARLINK-3294,1 50829U 22001AC  24081.52418949  .00002085  00000-0  14898-3 0  9994,2 50829  53.2159 153.0910 0001481  92.3343 267.7819 15.08850719123255,6917.848,95.437,540.737,538.688,0.0
50829.0,STARLINK-3294,PAYLOAD,2024-03-21 14:10:12,15.08855096,0.0001489,53.2162,152.7906,96.3014,263.8147,0.00022154,3.241e-05,0.0,0 STARLINK-3294,1 50829U 22001AC  24081.59042697  .00003241  00000-0  22154-3 0  9993,2 50829  53.2162 152.7906 0001489  96.3014 263.8147 15.08855096121990,6917.834,95.437,540.729,538.669,0.0
50829.0,STARLINK-3294,PAYLOAD,2024-03-22 04:28:41,15.08848843,0.0001521,53.2158,150.1154,103.1601,256.9561,0.00036137,5.469e-05,0.0,0 STARLINK-3294,1 50829U 22001AC  24082.18659032  .00005469  00000-0  36137-3 0  9996,2 50829  53.2158 150.1154 0001521 103.1601 256.9561 15.08848843123355,6917.853,95.437,540.771,538.666,0.0
50829.0,STARLINK-3294,PAYLOAD,2024-03-22 10:50:13,15.08846808,0.0001465,53.2166,148.9264,100.2362,259.8796,0.00027409,4.078e-05,0.0,0 STARLINK-3294,1 50829U 22001AC  24082.45154932  .00004078  00000-0  27409-3 0  9992,2 50829  53.2166 148.9264 0001465 100.2362 259.8796 15.08846808122125,6917.86,95.437,540.738,538.711,0.0
50829.0,STARLINK-3294,PAYLOAD,2024-03-23 10:41:01,15.08839108,0.0001249,53.216,144.465,104.7023,255.4108,-9.3076e-05,-1.769e-05,0.0,0 STARLINK-3294,1 50829U 22001AC  24083.44515713 -.00001769  00000-0 -93076-4 0  9990,2 50829  53.2160 144.4650 0001249 104.7023 255.4108 15.08839108123543,6917.883,95.438,540.612,538.884,0.0
50829.0,STARLINK-3294,PAYLOAD,2024-03-23 13:51:47,15.08838642,0.0001214,53.216,143.8703,101.6581,258.4547,-9.5653e-05,-1.81e-05,0.0,0 STARLINK-3294,1 50829U 22001AC  24083.57763726 -.00001810  00000-0 -95653-4 0  9993,2 50829  53.2160 143.8703 0001214 101.6581 258.4547 15.08838642122295,6917.885,95.438,540.589,538.91,0.0
50829.0,STARLINK-3294,PAYLOAD,2024-03-24 10:31:47,15.08848046,0.0001,53.2153,140.006,86.2565,273.8542,8.0772e-05,9.98e-06,0.0,0 STARLINK-3294,1 50829U 22001AC  24084.43874680  .00000998  00000-0  80772-4 0  9991,2 50829  53.2153 140.0060 0001000  86.2565 273.8542 15.08848046123695,6917.856,95.437,540.413,539.029,0.0
50829.0,STARLINK-3294,PAYLOAD,2024-03-24 20:04:05,15.08869901,0.0001839,53.2171,138.2228,58.5296,301.5876,0.00030043,4.5e-05,0.0,0 STARLINK-3294,1 50829U 22001AC  24084.83617043  .00004500  00000-0  30043-3 0  9991,2 50829  53.2171 138.2228 0001839  58.5296 301.5876 15.08869901123752,6917.789,95.436,540.926,538.382,0.0
50829.0,STARLINK-3294,PAYLOAD,2024-03-25 02:25:39,15.08839334,0.0002381,53.2154,137.0321,80.7923,279.3338,0.00018416,2.644e-05,0.0,0 STARLINK-3294,1 50829U 22001AC  24085.10115484  .00002644  00000-0  18416-3 0  9991,2 50829  53.2154 137.0321 0002381  80.7923 279.3338 15.08839334123797,6917.882,95.438,541.395,538.1,0.0
50829.0,STARLINK-3294,PAYLOAD,2024-03-25 10:22:36,15.08825398,0.000164,53.217,135.5503,103.1361,256.9814,4.5815e-06,-2.15e-06,0.0,0 STARLINK-3294,1 50829U 22001AC  24085.43236152 -.00000215  00000-0  45815-5 0  9991,2 50829  53.2170 135.5503 0001640 103.1361 256.9814 15.08825398123844,6917.925,95.438,540.925,538.655,0.0
50829.0,STARLINK-3294,PAYLOAD,2024-03-25 19:54:54,15.08843876,0.0001253,53.2154,133.7604,77.7602,282.3531,0.00016623,2.359e-05,0.0,0 STARLINK-3294,1 50829U 22001AC  24085.82979307  .00002359  00000-0  16623-3 0  9993,2 50829  53.2154 133.7604 0001253  77.7602 282.3531 15.08843876123909,6917.869,95.437,540.6,538.867,0.0
50829.0,STARLINK-3294,PAYLOAD,2024-03-26 03:51:50,15.08823681,0.0001471,53.2165,132.2745,88.297,271.819,-0.00026037,-4.427e-05,0.0,0 STARLINK-3294,1 50829U 22001AC  24086.16100610 -.00004427  00000-0 -26037-3 0  9994,2 50829  53.2165 132.2745 0001471  88.2970 271.8190 15.08823681123959,6917.93,95.439,540.813,538.778,0.0
50829.0,STARLINK-3294,PAYLOAD,2024-03-26 10:13:23,15.08828269,0.0001607,53.2162,131.088,96.1279,263.9896,-0.00013704,-2.468e-05,0.0,0 STARLINK-3294,1 50829U 22001AC  24086.42596565 -.00002468  00000-0 -13704-3 0  9991,2 50829  53.2162 131.0880 0001607  96.1279 263.9896 15.08828269122720,6917.916,95.438,540.893,538.67,0.0
50829.0,STARLINK-3294,PAYLOAD,2024-03-26 19:45:42,15.08834065,0.0001649,53.2173,129.3029,91.6227,268.4954,-5.4028e-05,-1.148e-05,0.0,0 STARLINK-3294,1 50829U 22001AC  24086.82340478 -.00001148  00000-0 -54028-4 0  9994,2 50829  53.2173 129.3029 0001649  91.6227 268.4954 15.08834065124050,6917.899,95.438,540.904,538.623,0.0
50829.0,STARLINK-3294,PAYLOAD,2024-03-27 11:39:33,15.08848416,0.0001576,53.216,126.3288,95.9335,264.1837,0.00046313,7.092e-05,0.0,0 STARLINK-3294,1 50829U 22001AC  24087.48580255  .00007092  00000-0  46313-3 0  9995,2 50829  53.2160 126.3288 0001576  95.9335 264.1837 15.08848416124155,6917.855,95.437,540.81,538.629,0.0
50829.0,STARLINK-3294,PAYLOAD,2024-03-27 19:36:28,15.08860429,0.0001525,53.2149,124.8388,74.8276,285.2885,0.00064999,0.00010077,0.0,0 STARLINK-3294,1 50829U 22001AC  24087.81699841  .00010077  00000-0  64999-3 0  9991,2 50829  53.2149 124.8388 0001525  74.8276 285.2885 15.08860429122939,6917.818,95.436,540.738,538.628,0.0
50829.0,STARLINK-3294,PAYLOAD,2024-03-28 11:30:19,15.08856015,0.000148,53.2148,121.8674,81.2579,278.8581,0.00048243,7.402e-05,0.0,0 STARLINK-3294,1 50829U 22001AC  24088.47939700  .00007402  00000-0  48243-3 0  9997,2 50829  53.2148 121.8674 0001480  81.2579 278.8581 15.08856015124301,6917.831,95.437,540.72,538.673,0.0
50829.0,STARLINK-3294,PAYLOAD,2024-03-28 19:27:15,15.08875895,0.0001482,53.2152,120.3809,80.8224,279.2936,0.0013428,0.00021168,0.0,0 STARLINK-3294,1 50829U 22001AC  24088.81059049  .00021168  00000-0  13428-2 0  9995,2 50829  53.2152 120.3809 0001482  80.8224 279.2936 15.08875895124355,6917.771,95.435,540.661,538.61,0.0
50829.0,STARLINK-3294,PAYLOAD,2024-03-29 01:48:47,15.08873624,0.0001477,53.2148,119.1922,85.8406,274.2755,0.00089964,0.00014072,0.0,0 STARLINK-3294,1 50829U 22001AC  24089.07554662  .00014072  00000-0  89964-3 0  9990,2 50829  53.2148 119.1922 0001477  85.8406 274.2755 15.08873624124399,6917.778,95.435,540.664,538.621,0.0
50829.0,STARLINK-3294,PAYLOAD,2024-03-29 11:21:06,15.08833753,0.000156,53.2161,117.404,97.3014,262.8156,-0.00053116,-8.73e-05,0.0,0 STARLINK-3294,1 50829U 22001AC  24089.47299033 -.00008730  00000-0 -53116-3 0  9998,2 50829  53.2161 117.4040 0001560  97.3014 262.8156 15.08833753124456,6917.899,95.438,540.844,538.685,0.0
50829.0,STARLINK-3294,PAYLOAD,2024-03-29 19:18:02,15.0883474,0.0001493,53.216,115.918,95.4857,264.6306,-0.00033018,-5.538e-05,0.0,0 STARLINK-3294,1 50829U 22001AC  24089.80419122 -.00005538  00000-0 -33018-3 0  9990,2 50829  53.2160 115.9180 0001493  95.4857 264.6306 15.08834740123231,6917.896,95.438,540.794,538.729,0.0
50829.0,STARLINK-3294,PAYLOAD,2024-03-30 08:01:07,15.08835388,0.0001578,53.2151,113.5413,92.5305,267.5868,0.0011742,0.00018446,0.0,0 STARLINK-3294,1 50829U 22001AC  24090.33411822  .00018446  00000-0  11742-2 0  9998,2 50829  53.2151 113.5413 0001578  92.5305 267.5868 15.08835388124587,6917.894,95.438,540.851,538.668,0.0
50829.0,STARLINK-3294,PAYLOAD,2024-03-31 04:41:08,15.08842996,0.0001513,53.2155,109.6748,93.3372,266.7793,0.00070414,0.00010937,0.0,0 STARLINK-3294,1 50829U 22001AC  24091.19524169  .00010937  00000-0  70414-3 0  9991,2 50829  53.2155 109.6748 0001513  93.3372 266.7793 15.08842996124716,6917.871,95.437,540.783,538.69,0.0
50829.0,STARLINK-3294,PAYLOAD,2024-03-31 11:02:41,15.08848457,0.0001451,53.2154,108.4862,89.0586,271.0572,0.00070923,0.0001102,0.0,0 STARLINK-3294,1 50829U 22001AC  24091.46020123  .00011020  00000-0  70923-3 0  9991,2 50829  53.2154 108.4862 0001451  89.0586 271.0572 15.08848457123484,6917.855,95.437,540.723,538.716,0.0
50829.0,STARLINK-3294,PAYLOAD,2024-04-01 07:42:42,15.08831459,0.0001306,53.2148,104.6178,90.772,269.3421,9.5858e-05,1.238e-05,0.0,0 STARLINK-3294,1 50829U 22001AC  24092.32132786  .00001238  00000-0  95858-4 0  9991,2 50829  53.2148 104.6178 0001306  90.7720 269.3421 15.08831459124885,6917.906,95.438,540.675,538.868,0.0
50829.0,STARLINK-3294,PAYLOAD,2024-04-02 07:33:29,15.08845667,0.000139,53.2162,100.1595,97.5511,262.5639,0.00022175,3.244e-05,0.0,0 STARLINK-3294,1 50829U 22001AC  24093.31492335  .00003244  00000-0  22175-3 0  9990,2 50829  53.2162 100.1595 0001390  97.5511 262.5639 15.08845667125031,6917.863,95.437,540.69,538.766,0.0
50829.0,STARLINK-3294,PAYLOAD,2024-04-02 17:05:47,15.08850074,0.0001431,53.2168,98.3738,89.4468,270.6689,0.00025176,3.722e-05,0.0,0 STARLINK-3294,1 50829U 22001AC  24093.71235999  .00003722  00000-0  25176-3 0  9990,2 50829  53.2168  98.3738 0001431  89.4468 270.6689 15.08850074123829,6917.85,95.437,540.705,538.725,0.0
50829.0,STARLINK-3294,PAYLOAD,2024-04-03 08:59:40,15.08833999,0.000175,53.2186,95.4048,104.3308,255.7878,3.0662e-05,2e-06,0.0,0 STARLINK-3294,1 50829U 22001AC  24094.37476884  .00000200  00000-0  30662-4 0  9998,2 50829  53.2186  95.4048 0001750 104.3308 255.7878 15.08833999125198,6917.899,95.438,540.974,538.553,0.0
